start=new Date('2023-05-16T00:00:00.000Z').valueOf();
sats=[{"TLE_LINE2":"2 56398  42.9997  44.3544 0001411 277.4521  82.6186 15.71369138  1761","TIME_SYSTEM":"UTC","SITE":"AFETR","GP_ID":"231898621","EPHEMERIS_TYPE":"0","REV_AT_EPOCH":"176","OBJECT_ID":"2023-061AA","RCS_SIZE":null,"MEAN_MOTION_DOT":"0.00011269","SEMIMAJOR_AXIS":"6733.120","MEAN_ANOMALY":"82.6186","OBJECT_NAME":"STARLINK-6288","EPOCH":"2023-05-15T10:34:54.206688","CENTER_NAME":"EARTH","NORAD_CAT_ID":"56398","FILE":"3908681","BSTAR":"0.00008921000000","COUNTRY_CODE":"US","PERIAPSIS":"354.035","MEAN_MOTION":"15.71369138","PERIOD":"91.640","CLASSIFICATION_TYPE":"U","ARG_OF_PERICENTER":"277.4521","ECCENTRICITY":"0.00014110","RA_OF_ASC_NODE":"44.3544","INCLINATION":"42.9997","OBJECT_TYPE":"PAYLOAD","ELEMENT_SET_NO":"999","MEAN_ELEMENT_THEORY":"SGP4","APOAPSIS":"355.935","LAUNCH_DATE":"2023-05-04","DECAY_DATE":null,"REF_FRAME":"TEME","MEAN_MOTION_DDOT":"0.0000000000000","TLE_LINE1":"1 56398U 23061AA  23135.44090517  .00011269  00000-0  89210-4 0  9990"},{"EPOCH":"2023-05-15T10:35:12.383520","MEAN_ANOMALY":"89.0638","OBJECT_NAME":"STARLINK-6277","OBJECT_ID":"2023-061AB","SEMIMAJOR_AXIS":"6733.079","MEAN_MOTION_DOT":"0.00002985","RCS_SIZE":null,"REV_AT_EPOCH":"176","EPHEMERIS_TYPE":"0","TIME_SYSTEM":"UTC","TLE_LINE2":"2 56399  42.9985  44.3575 0001309 271.0080  89.0638 15.71383539  1763","GP_ID":"231898773","SITE":"AFETR","MEAN_MOTION_DDOT":"0.0000000000000","TLE_LINE1":"1 56399U 23061AB  23135.44111555  .00002985  00000-0  26168-4 0  9995","REF_FRAME":"TEME","LAUNCH_DATE":"2023-05-04","DECAY_DATE":null,"ELEMENT_SET_NO":"999","APOAPSIS":"355.825","MEAN_ELEMENT_THEORY":"SGP4","INCLINATION":"42.9985","RA_OF_ASC_NODE":"44.3575","ECCENTRICITY":"0.00013090","ARG_OF_PERICENTER":"271.0080","OBJECT_TYPE":"PAYLOAD","MEAN_MOTION":"15.71383539","PERIAPSIS":"354.063","CLASSIFICATION_TYPE":"U","PERIOD":"91.639","FILE":"3908681","COUNTRY_CODE":"US","BSTAR":"0.00002616800000","NORAD_CAT_ID":"56399","CENTER_NAME":"EARTH"},{"EPHEMERIS_TYPE":"0","SITE":"AFETR","GP_ID":"231898591","TIME_SYSTEM":"UTC","TLE_LINE2":"2 56400  43.0002  44.3529 0001276 269.3894  90.6828 15.71338841  1768","OBJECT_NAME":"STARLINK-6267","MEAN_ANOMALY":"90.6828","EPOCH":"2023-05-15T10:34:35.669568","REV_AT_EPOCH":"176","SEMIMAJOR_AXIS":"6733.207","MEAN_MOTION_DOT":"0.00031393","RCS_SIZE":null,"OBJECT_ID":"2023-061AC","CLASSIFICATION_TYPE":"U","PERIOD":"91.642","MEAN_MOTION":"15.71338841","PERIAPSIS":"354.213","OBJECT_TYPE":"PAYLOAD","ECCENTRICITY":"0.00012760","RA_OF_ASC_NODE":"44.3529","INCLINATION":"43.0002","ARG_OF_PERICENTER":"269.3894","NORAD_CAT_ID":"56400","CENTER_NAME":"EARTH","COUNTRY_CODE":"US","BSTAR":"0.00024211000000","FILE":"3908681","REF_FRAME":"TEME","MEAN_MOTION_DDOT":"0.0000000000000","TLE_LINE1":"1 56400U 23061AC  23135.44069062  .00031393  00000-0  24211-3 0  9994","APOAPSIS":"355.931","MEAN_ELEMENT_THEORY":"SGP4","ELEMENT_SET_NO":"999","LAUNCH_DATE":"2023-05-04","DECAY_DATE":null},{"CENTER_NAME":"EARTH","NORAD_CAT_ID":"56401","FILE":"3908681","BSTAR":"0.00041729000000","COUNTRY_CODE":"US","PERIAPSIS":"354.420","MEAN_MOTION":"15.71316213","PERIOD":"91.643","CLASSIFICATION_TYPE":"U","ARG_OF_PERICENTER":"290.8478","RA_OF_ASC_NODE":"44.3515","ECCENTRICITY":"0.00010640","INCLINATION":"42.9992","OBJECT_TYPE":"PAYLOAD","ELEMENT_SET_NO":"999","MEAN_ELEMENT_THEORY":"SGP4","APOAPSIS":"355.853","DECAY_DATE":null,"LAUNCH_DATE":"2023-05-04","REF_FRAME":"TEME","MEAN_MOTION_DDOT":"0.0000000000000","TLE_LINE1":"1 56401U 23061AD  23135.44048443  .00054535  00000-0  41729-3 0  9991","TLE_LINE2":"2 56401  42.9992  44.3515 0001064 290.8478  69.2275 15.71316213  1769","TIME_SYSTEM":"UTC","SITE":"AFETR","GP_ID":"231898680","EPHEMERIS_TYPE":"0","REV_AT_EPOCH":"176","OBJECT_ID":"2023-061AD","RCS_SIZE":null,"MEAN_MOTION_DOT":"0.00054535","SEMIMAJOR_AXIS":"6733.271","MEAN_ANOMALY":"69.2275","OBJECT_NAME":"STARLINK-6256","EPOCH":"2023-05-15T10:34:17.854752"},{"REF_FRAME":"TEME","TLE_LINE1":"1 56402U 23061AE  23135.44037872  .00018254  00000-0  14230-3 0  9991","MEAN_MOTION_DDOT":"0.0000000000000","MEAN_ELEMENT_THEORY":"SGP4","APOAPSIS":"355.945","ELEMENT_SET_NO":"999","DECAY_DATE":null,"LAUNCH_DATE":"2023-05-04","PERIOD":"91.640","CLASSIFICATION_TYPE":"U","PERIAPSIS":"354.064","MEAN_MOTION":"15.71362409","OBJECT_TYPE":"PAYLOAD","ARG_OF_PERICENTER":"260.3620","RA_OF_ASC_NODE":"44.3510","ECCENTRICITY":"0.00013970","INCLINATION":"43.0001","CENTER_NAME":"EARTH","NORAD_CAT_ID":"56402","BSTAR":"0.00014230000000","COUNTRY_CODE":"US","FILE":"3908681","OBJECT_NAME":"STARLINK-6269","MEAN_ANOMALY":"99.7090","EPOCH":"2023-05-15T10:34:08.721408","REV_AT_EPOCH":"176","RCS_SIZE":null,"MEAN_MOTION_DOT":"0.00018254","SEMIMAJOR_AXIS":"6733.139","OBJECT_ID":"2023-061AE","EPHEMERIS_TYPE":"0","SITE":"AFETR","GP_ID":"231898747","TLE_LINE2":"2 56402  43.0001  44.3510 0001397 260.3620  99.7090 15.71362409  1769","TIME_SYSTEM":"UTC"},{"EPHEMERIS_TYPE":"0","GP_ID":"231898649","SITE":"AFETR","TIME_SYSTEM":"UTC","TLE_LINE2":"2 56403  42.9993  44.3541 0001690 254.5762 105.4919 15.71307655  1767","EPOCH":"2023-05-15T10:34:46.180992","OBJECT_NAME":"STARLINK-6284","MEAN_ANOMALY":"105.4919","SEMIMAJOR_AXIS":"6733.296","RCS_SIZE":null,"MEAN_MOTION_DOT":"0.00079134","OBJECT_ID":"2023-061AF","REV_AT_EPOCH":"176","OBJECT_TYPE":"PAYLOAD","ECCENTRICITY":"0.00016900","RA_OF_ASC_NODE":"44.3541","INCLINATION":"42.9993","ARG_OF_PERICENTER":"254.5762","CLASSIFICATION_TYPE":"U","PERIOD":"91.643","MEAN_MOTION":"15.71307655","PERIAPSIS":"354.023","COUNTRY_CODE":"US","BSTAR":"0.00060239000000","FILE":"3908681","NORAD_CAT_ID":"56403","CENTER_NAME":"EARTH","MEAN_MOTION_DDOT":"0.0000000000000","TLE_LINE1":"1 56403U 23061AF  23135.44081228  .00079134  00000-0  60239-3 0  9990","REF_FRAME":"TEME","LAUNCH_DATE":"2023-05-04","DECAY_DATE":null,"APOAPSIS":"356.299","MEAN_ELEMENT_THEORY":"SGP4","ELEMENT_SET_NO":"999"},{"EPHEMERIS_TYPE":"0","TLE_LINE2":"2 56404  42.9999  44.3496 0001521 264.4515  95.6180 15.71337223  1766","TIME_SYSTEM":"UTC","SITE":"AFETR","GP_ID":"231898716","EPOCH":"2023-05-15T10:33:50.442624","MEAN_ANOMALY":"95.6180","OBJECT_NAME":"STARLINK-6287","OBJECT_ID":"2023-061AG","MEAN_MOTION_DOT":"0.00043622","RCS_SIZE":null,"SEMIMAJOR_AXIS":"6733.211","REV_AT_EPOCH":"176","ARG_OF_PERICENTER":"264.4515","RA_OF_ASC_NODE":"44.3496","INCLINATION":"42.9999","ECCENTRICITY":"0.00015210","OBJECT_TYPE":"PAYLOAD","PERIAPSIS":"354.052","MEAN_MOTION":"15.71337223","PERIOD":"91.642","CLASSIFICATION_TYPE":"U","FILE":"3908681","BSTAR":"0.00033461000000","COUNTRY_CODE":"US","CENTER_NAME":"EARTH","NORAD_CAT_ID":"56404","TLE_LINE1":"1 56404U 23061AG  23135.44016716  .00043622  00000-0  33461-3 0  9991","MEAN_MOTION_DDOT":"0.0000000000000","REF_FRAME":"TEME","DECAY_DATE":null,"LAUNCH_DATE":"2023-05-04","ELEMENT_SET_NO":"999","MEAN_ELEMENT_THEORY":"SGP4","APOAPSIS":"356.100"},{"REF_FRAME":"TEME","MEAN_MOTION_DDOT":"0.0000000000000","TLE_LINE1":"1 56405U 23061AH  23135.44058823  .00033786  00000-0  25980-3 0  9994","ELEMENT_SET_NO":"999","APOAPSIS":"355.898","MEAN_ELEMENT_THEORY":"SGP4","DECAY_DATE":null,"LAUNCH_DATE":"2023-05-04","MEAN_MOTION":"15.71377993","PERIAPSIS":"354.022","CLASSIFICATION_TYPE":"U","PERIOD":"91.639","ECCENTRICITY":"0.00013930","RA_OF_ASC_NODE":"44.3529","INCLINATION":"42.9988","ARG_OF_PERICENTER":"275.9211","OBJECT_TYPE":"PAYLOAD","NORAD_CAT_ID":"56405","CENTER_NAME":"EARTH","FILE":"3908681","COUNTRY_CODE":"US","BSTAR":"0.00025980000000","MEAN_ANOMALY":"84.1498","OBJECT_NAME":"STARLINK-6285","EPOCH":"2023-05-15T10:34:26.823072","REV_AT_EPOCH":"176","OBJECT_ID":"2023-061AH","SEMIMAJOR_AXIS":"6733.095","MEAN_MOTION_DOT":"0.00033786","RCS_SIZE":null,"EPHEMERIS_TYPE":"0","TIME_SYSTEM":"UTC","TLE_LINE2":"2 56405  42.9988  44.3529 0001393 275.9211  84.1498 15.71377993  1762","GP_ID":"231898805","SITE":"AFETR"},{"OBJECT_TYPE":"PAYLOAD","ARG_OF_PERICENTER":"260.7575","RA_OF_ASC_NODE":"41.4721","INCLINATION":"42.9998","ECCENTRICITY":"0.00015100","PERIOD":"91.640","CLASSIFICATION_TYPE":"U","PERIAPSIS":"353.970","MEAN_MOTION":"15.71368636","BSTAR":"-0.00015517000000","COUNTRY_CODE":"US","FILE":"3908892","CENTER_NAME":"EARTH","NORAD_CAT_ID":"56406","MEAN_MOTION_DDOT":"0.0000000000000","TLE_LINE1":"1 56406U 23061AJ  23135.91667824 -.00020760  00000-0 -15517-3 0  9999","REF_FRAME":"TEME","DECAY_DATE":null,"LAUNCH_DATE":"2023-05-04","MEAN_ELEMENT_THEORY":"SGP4","APOAPSIS":"356.003","ELEMENT_SET_NO":"999","EPHEMERIS_TYPE":"0","SITE":"AFETR","GP_ID":"231930114","TLE_LINE2":"2 56406  42.9998  41.4721 0001510 260.7575 279.9252 15.71368636  1308","TIME_SYSTEM":"UTC","EPOCH":"2023-05-15T22:00:00.999936","OBJECT_NAME":"STARLINK-6283","MEAN_ANOMALY":"279.9252","RCS_SIZE":null,"MEAN_MOTION_DOT":"-0.00020760","SEMIMAJOR_AXIS":"6733.122","OBJECT_ID":"2023-061AJ","REV_AT_EPOCH":"130"},{"GP_ID":"231930058","SITE":"AFETR","TLE_LINE2":"2 56407  42.9997  42.9831 0001678 255.9813 306.4066 15.71334835  1305","TIME_SYSTEM":"UTC","EPHEMERIS_TYPE":"0","REV_AT_EPOCH":"130","RCS_SIZE":null,"MEAN_MOTION_DOT":"0.00034047","SEMIMAJOR_AXIS":"6733.218","OBJECT_ID":"2023-061AK","OBJECT_NAME":"STARLINK-6282","MEAN_ANOMALY":"306.4066","EPOCH":"2023-05-15T16:00:00.999936","CENTER_NAME":"EARTH","NORAD_CAT_ID":"56407","BSTAR":"0.00026224000000","COUNTRY_CODE":"US","FILE":"3908892","PERIOD":"91.642","CLASSIFICATION_TYPE":"U","PERIAPSIS":"353.953","MEAN_MOTION":"15.71334835","OBJECT_TYPE":"PAYLOAD","ARG_OF_PERICENTER":"255.9813","RA_OF_ASC_NODE":"42.9831","ECCENTRICITY":"0.00016780","INCLINATION":"42.9997","MEAN_ELEMENT_THEORY":"SGP4","APOAPSIS":"356.213","ELEMENT_SET_NO":"999","LAUNCH_DATE":"2023-05-04","DECAY_DATE":null,"REF_FRAME":"TEME","TLE_LINE1":"1 56407U 23061AK  23135.66667824  .00034047  00000-0  26224-3 0  9990","MEAN_MOTION_DDOT":"0.0000000000000"}];
